#aV2014  4 29  0  0  0.00000000     288 DD+AD WGS84 FIT  NGA
## 1790 172800.00000000   300.00000000 56776 0.0000000000000
+   32     1  2  3  4  5  6  7  8  9 10 11 12 13 14 15 16 17
+         18 19 20 21 22 23 24 25 26 27 28 29 30 31 32  0  0
+          0  0  0  0  0  0  0  0  0  0  0  0  0  0  0  0  0
+          0  0  0  0  0  0  0  0  0  0  0  0  0  0  0  0  0
+          0  0  0  0  0  0  0  0  0  0  0  0  0  0  0  0  0
++         2  2  2  2  2  2  2  2  2  2  2  2  2  2  2  2  2
++         2  2  2  2  2  2  2  2  2  2  2  2  2  2  2  0  0
++         0  0  0  0  0  0  0  0  0  0  0  0  0  0  0  0  0
++         0  0  0  0  0  0  0  0  0  0  0  0  0  0  0  0  0
++         0  0  0  0  0  0  0  0  0  0  0  0  0  0  0  0  0
%c cc cc ccc ccc cccc cccc cccc cccc ccccc ccccc ccccc ccccc
%c cc cc ccc ccc cccc cccc cccc cccc ccccc ccccc ccccc ccccc
%f  0.0000000  0.000000000  0.00000000000  0.000000000000000
%f  0.0000000  0.000000000  0.00000000000  0.000000000000000
%i    0    0    0    0      0      0      0      0         0
%i    0    0    0    0      0      0      0      0         0
/*      NGA, ST. LOUIS,MO.                                  
/*   EPHEMERIS COMPUTED FROM  1 DAYS OF DATA                
/*   EPOCHA SMOOTHER                                       
/* CCCCCCCCCCCCCCCCCCCCCCCCCCCCCCCCCCCCCCCCCCCCCCCCCCCCCCCCC
*  2014  4 29 12 30  0.00000000
P  1 -13331.426012  18611.784735  13320.077077     10.440179                    
V  1   1127.618351 -17139.626777  25154.028275      0.013945                    
P  2  14711.859853   5636.146939 -21128.488387    492.462628                    
V  2  -4936.387467  27107.225223   3252.056130      0.021522                    
P  3 -22939.243620  -3884.922025  12408.847228    358.117443                    
V  3 -12421.825283 -11417.409378 -25271.071687      0.050605                    
P  4   8687.966291  19040.673662 -16525.509901      6.867618                    
V  4  -6161.606973  19765.335569  20141.100438      0.000390                    
P  5  24758.661612  -1021.321264  -9816.171975   -376.019575                    
V  5 -10825.574195   6607.835106 -27936.532839      0.023223                    
P  6 -15306.665830  -9098.058142 -19944.165238   -157.757203                    
V  6  23402.170715  -8359.701177 -14055.357065     -0.020084                    
P  7  -5917.609132  25703.180901   -186.645439    340.682228                    
V  7  -2571.194995   -909.338403 -32251.473902      0.042091                    
P  8  -1090.651358  24234.605325  10195.707316     13.215092                    
V  8  -5871.287306  11625.267525 -29276.448899      0.002456                    
P  9   2858.049366  23546.558595  11225.141404    323.783192                    
V  9  -5098.246887  14383.788808 -27751.839681      0.029096                    
P 10  12371.144099  11832.927248 -20737.926080   -123.498347                    
V 10 -24075.811134   8568.799049  -9208.177381     -0.015330                    
P 11 -13815.244044  12005.921251  18701.344437   -484.734725                    
V 11  -5169.058716 -24698.761200  11946.489715     -0.031792                    
P 12  22916.341536 -11384.938482  -6725.180880    201.691844                    
V 12   8713.890955   -443.396417  30956.029603      0.024464                    
P 13  -2759.427618  17114.369081 -20209.252580      4.856129                    
V 13 -17884.814421 -18009.871230 -13051.482527     -0.038160                    
P 14 -12905.543261 -21694.641689   8717.864756    177.385417                    
V 14   9031.035397   6149.715710  29260.845910     -0.033889                    
P 15  18681.093221  -2547.401056  18759.801421   -176.627800                    
V 15  17539.761406  16342.783496 -14912.842308     -0.021680                    
P 16 -24830.917630     16.244292  -9969.609145   -220.924597                    
V 16  11611.086885  -4693.740510 -28708.925163      0.018367                    
P 17  14185.243612  21215.222006   8023.070231    -89.030843                    
V 17  -8561.704166  -5181.733628  29581.038458     -0.031860                    
P 18   5962.124301 -17505.672213  19400.748840    316.188207                    
V 18  23172.191988  -6207.131450 -13363.609680      0.022977                    
P 19 -19054.702768  -1544.648791  18489.808117   -453.906082                    
V 19 -15307.106230 -17984.335957 -16711.260285     -0.022548                    
P 20 -20998.791716  14535.762322  -7362.894945    184.413934                    
V 20  -9869.478773     83.880229  29118.397740      0.037705                    
P 21   2482.885281 -26046.025640   3375.857149   -358.154692                    
V 21   4648.845831  -2771.655579 -31006.813719     -0.022217                    
P 22  -8128.344667 -14122.530054  21197.263766    230.422890                    
V 22  24995.955280  -9016.653077   3449.213147      0.026645                    
P 23 -13478.708305   8265.111257 -21282.923962    -16.372630                    
V 23 -20066.580691 -18436.331958   5111.691624     -0.031471                    
P 24  14747.449967 -14278.684221  16781.819598    -27.549660                    
V 24  -2085.542937  21385.279474  20092.970378     -0.006628                    
P 25  13242.431002 -16197.282057 -16349.290548     22.887595                    
V 25  20066.401040  -5136.992308  21563.855351      0.007884                    
P 26  21017.111383  10779.933993  11774.509558     94.171090                    
V 26   9404.755256  12921.189508 -26825.313826     -0.115711                    
P 27 -22374.992814 -10584.969325   9704.508376    -18.380241                    
V 27  -7674.414826  -9921.767177 -28449.579999      0.012762                    
P 28   3281.476360  14563.207192  22570.482552    350.950202                    
V 28 -26220.818775   6946.806102   -818.184010      0.029158                    
P 29   3293.890955 -16483.531837 -20535.334117    528.935125                    
V 29  19318.089182  17617.290521 -10971.725594      0.027171                    
P 30   -303.488371  24877.221060   9257.370217     -5.068544                    
V 30  -5742.490240  10613.984720 -28706.391484     -0.040592                    
P 31  -9652.465935 -15373.492403 -19119.871424    334.256389                    
V 31   6837.778339 -23738.008163  15809.921793      0.000182                    
P 32 -25773.554810   4084.679115   3045.929298   -439.545542                    
V 32   2880.043697  -4464.009761  31509.136706      0.078477                    
EOF
